[
  {
    "OBJECT_NAME": "STARLINK-34551",
    "OBJECT_ID": "25139U",
    "EPOCH": "2025-11-11T06:17:49.560288",
    "MEAN_MOTION": 15.39648466,
    "ECCENTRICITY": 0.0001005,
    "INCLINATION": 53.1612,
    "RA_OF_ASC_NODE": 311.3552,
    "ARG_OF_PERICENTER": 88.3959,
    "MEAN_ANOMALY": 271.7161,
    "EPHEMERIS_TYPE": 0,
    "CLASSIFICATION_TYPE": "U",
    "NORAD_CAT_ID": 64682,
    "ELEMENT_SET_NO": 999,
    "REV_AT_EPOCH": 2223,
    "BSTAR": 0.0018555,
    "MEAN_MOTION_DOT": 0.0007462,
    "MEAN_MOTION_DDOT": 0.0,
    "TLE_LINE1": "1 64682U 25139U   25315.26237917  .00074620  00000+0  18555-2 0  9993",
    "TLE_LINE2": "2 64682  53.1612 311.3552 0001005  88.3959 271.7161 15.39648466 22230",
    "COMMENT": "Grouped by shell and plane from TLE"
  },
  {
    "OBJECT_NAME": "STARLINK-34550",
    "OBJECT_ID": "25139V",
    "EPOCH": "2025-11-11T06:30:10.790208",
    "MEAN_MOTION": 15.30220055,
    "ECCENTRICITY": 0.000132,
    "INCLINATION": 53.161,
    "RA_OF_ASC_NODE": 317.0835,
    "ARG_OF_PERICENTER": 85.0919,
    "MEAN_ANOMALY": 275.0233,
    "EPHEMERIS_TYPE": 0,
    "CLASSIFICATION_TYPE": "U",
    "NORAD_CAT_ID": 64683,
    "ELEMENT_SET_NO": 999,
    "REV_AT_EPOCH": 2215,
    "BSTAR": 0.0008404700000000001,
    "MEAN_MOTION_DOT": 0.00024631,
    "MEAN_MOTION_DDOT": 0.0,
    "TLE_LINE1": "1 64683U 25139V   25315.27095822  .00024631  00000+0  84047-3 0  9999",
    "TLE_LINE2": "2 64683  53.1610 317.0835 0001320  85.0919 275.0233 15.30220055 22155",
    "COMMENT": "Grouped by shell and plane from TLE"
  },
  {
    "OBJECT_NAME": "STARLINK-34485",
    "OBJECT_ID": "25139W",
    "EPOCH": "2025-11-11T06:54:28.878336",
    "MEAN_MOTION": 15.30200024,
    "ECCENTRICITY": 0.000162,
    "INCLINATION": 53.1598,
    "RA_OF_ASC_NODE": 317.1877,
    "ARG_OF_PERICENTER": 72.0966,
    "MEAN_ANOMALY": 288.0211,
    "EPHEMERIS_TYPE": 0,
    "CLASSIFICATION_TYPE": "U",
    "NORAD_CAT_ID": 64684,
    "ELEMENT_SET_NO": 999,
    "REV_AT_EPOCH": 2215,
    "BSTAR": 0.00049441,
    "MEAN_MOTION_DOT": 0.00014312,
    "MEAN_MOTION_DDOT": 0.0,
    "TLE_LINE1": "1 64684U 25139W   25315.28783424  .00014312  00000+0  49441-3 0  9997",
    "TLE_LINE2": "2 64684  53.1598 317.1877 0001620  72.0966 288.0211 15.30200024 22153",
    "COMMENT": "Grouped by shell and plane from TLE"
  },
  {
    "OBJECT_NAME": "STARLINK-34253",
    "OBJECT_ID": "25139X",
    "EPOCH": "2025-11-11T06:49:56.100576",
    "MEAN_MOTION": 15.30188478,
    "ECCENTRICITY": 0.0001252,
    "INCLINATION": 53.1596,
    "RA_OF_ASC_NODE": 317.1654,
    "ARG_OF_PERICENTER": 87.7374,
    "MEAN_ANOMALY": 272.3771,
    "EPHEMERIS_TYPE": 0,
    "CLASSIFICATION_TYPE": "U",
    "NORAD_CAT_ID": 64685,
    "ELEMENT_SET_NO": 999,
    "REV_AT_EPOCH": 2215,
    "BSTAR": 0.001044,
    "MEAN_MOTION_DOT": 0.00030676,
    "MEAN_MOTION_DDOT": 0.0,
    "TLE_LINE1": "1 64685U 25139X   25315.28467709  .00030676  00000+0  10440-2 0  9990",
    "TLE_LINE2": "2 64685  53.1596 317.1654 0001252  87.7374 272.3771 15.30188478 22157",
    "COMMENT": "Grouped by shell and plane from TLE"
  },
  {
    "OBJECT_NAME": "STARLINK-34565",
    "OBJECT_ID": "25139Y",
    "EPOCH": "2025-11-11T06:45:22.507200",
    "MEAN_MOTION": 15.30193485,
    "ECCENTRICITY": 0.0001317,
    "INCLINATION": 53.1601,
    "RA_OF_ASC_NODE": 317.1452,
    "ARG_OF_PERICENTER": 105.0378,
    "MEAN_ANOMALY": 255.0768,
    "EPHEMERIS_TYPE": 0,
    "CLASSIFICATION_TYPE": "U",
    "NORAD_CAT_ID": 64686,
    "ELEMENT_SET_NO": 999,
    "REV_AT_EPOCH": 2215,
    "BSTAR": 0.0011967,
    "MEAN_MOTION_DOT": 0.00035243,
    "MEAN_MOTION_DDOT": 0.0,
    "TLE_LINE1": "1 64686U 25139Y   25315.28151050  .00035243  00000+0  11967-2 0  9990",
    "TLE_LINE2": "2 64686  53.1601 317.1452 0001317 105.0378 255.0768 15.30193485 22159",
    "COMMENT": "Grouped by shell and plane from TLE"
  },
  {
    "OBJECT_NAME": "STARLINK-34554",
    "OBJECT_ID": "25139Z",
    "EPOCH": "2025-11-11T06:11:56.880672",
    "MEAN_MOTION": 15.30201213,
    "ECCENTRICITY": 0.0001265,
    "INCLINATION": 53.1588,
    "RA_OF_ASC_NODE": 317.0043,
    "ARG_OF_PERICENTER": 71.1889,
    "MEAN_ANOMALY": 288.9249,
    "EPHEMERIS_TYPE": 0,
    "CLASSIFICATION_TYPE": "U",
    "NORAD_CAT_ID": 64687,
    "ELEMENT_SET_NO": 999,
    "REV_AT_EPOCH": 2215,
    "BSTAR": 0.0010344,
    "MEAN_MOTION_DOT": 0.00030402,
    "MEAN_MOTION_DDOT": 0.0,
    "TLE_LINE1": "1 64687U 25139Z   25315.25829723  .00030402  00000+0  10344-2 0  9997",
    "TLE_LINE2": "2 64687  53.1588 317.0043 0001265  71.1889 288.9249 15.30201213 22159",
    "COMMENT": "Grouped by shell and plane from TLE"
  },
  {
    "OBJECT_NAME": "STARLINK-34262",
    "OBJECT_ID": "25139AA",
    "EPOCH": "2025-11-11T06:25:37.335072",
    "MEAN_MOTION": 15.30202806,
    "ECCENTRICITY": 0.000143,
    "INCLINATION": 53.1611,
    "RA_OF_ASC_NODE": 317.0603,
    "ARG_OF_PERICENTER": 84.9193,
    "MEAN_ANOMALY": 275.1971,
    "EPHEMERIS_TYPE": 0,
    "CLASSIFICATION_TYPE": "U",
    "NORAD_CAT_ID": 64688,
    "ELEMENT_SET_NO": 999,
    "REV_AT_EPOCH": 2221,
    "BSTAR": 0.0020371,
    "MEAN_MOTION_DOT": 0.0006047,
    "MEAN_MOTION_DDOT": 0.0,
    "TLE_LINE1": "1 64688U 25139AA  25315.26779323  .00060470  00000+0  20371-2 0  9998",
    "TLE_LINE2": "2 64688  53.1611 317.0603 0001430  84.9193 275.1971 15.30202806 22219",
    "COMMENT": "Grouped by shell and plane from TLE"
  },
  {
    "OBJECT_NAME": "STARLINK-34538",
    "OBJECT_ID": "25139AB",
    "EPOCH": "2025-11-11T06:36:15.493248",
    "MEAN_MOTION": 15.30210049,
    "ECCENTRICITY": 0.0001783,
    "INCLINATION": 53.161,
    "RA_OF_ASC_NODE": 317.1061,
    "ARG_OF_PERICENTER": 88.4074,
    "MEAN_ANOMALY": 271.7131,
    "EPHEMERIS_TYPE": 0,
    "CLASSIFICATION_TYPE": "U",
    "NORAD_CAT_ID": 64689,
    "ELEMENT_SET_NO": 999,
    "REV_AT_EPOCH": 2215,
    "BSTAR": 0.0011549,
    "MEAN_MOTION_DOT": 0.00034012,
    "MEAN_MOTION_DDOT": 0.0,
    "TLE_LINE1": "1 64689U 25139AB  25315.27517932  .00034012  00000+0  11549-2 0  9996",
    "TLE_LINE2": "2 64689  53.1610 317.1061 0001783  88.4074 271.7131 15.30210049 22157",
    "COMMENT": "Grouped by shell and plane from TLE"
  },
  {
    "OBJECT_NAME": "STARLINK-34250",
    "OBJECT_ID": "25139AC",
    "EPOCH": "2025-11-11T06:40:48.994176",
    "MEAN_MOTION": 15.30218331,
    "ECCENTRICITY": 0.0001525,
    "INCLINATION": 53.1604,
    "RA_OF_ASC_NODE": 317.1264,
    "ARG_OF_PERICENTER": 79.2462,
    "MEAN_ANOMALY": 280.871,
    "EPHEMERIS_TYPE": 0,
    "CLASSIFICATION_TYPE": "U",
    "NORAD_CAT_ID": 64690,
    "ELEMENT_SET_NO": 999,
    "REV_AT_EPOCH": 2215,
    "BSTAR": 0.00086806,
    "MEAN_MOTION_DOT": 0.00025453,
    "MEAN_MOTION_DDOT": 0.0,
    "TLE_LINE1": "1 64690U 25139AC  25315.27834484  .00025453  00000+0  86806-3 0  9990",
    "TLE_LINE2": "2 64690  53.1604 317.1264 0001525  79.2462 280.8710 15.30218331 22156",
    "COMMENT": "Grouped by shell and plane from TLE"
  }
]